{
  "norad_id": 58413,
  "name": "STARLINK-30931",
  "history": [
    {
      "epoch": "2026-03-28T21:20:52.814688",
      "apogee_km": 483.7493346315632,
      "perigee_km": 482.35239678210564,
      "latitude_deg": -29.471090685529845,
      "longitude_deg": 106.69201632007025,
      "semi_major_axis_km": 6861.187865706835,
      "eccentricity": 0.0001018,
      "inclination_deg": 43.0033,
      "raan_deg": 292.8645,
      "arg_perigee_deg": 285.3133,
      "mean_anomaly_deg": 74.7606,
      "mean_motion_rev_day": 15.27579409
    }
  ]
}