{"fetched_at":"2026-03-29T16:36:15Z","count":15609,"tles":[{"name":"STARLINK-30931","line1":"1 58413U 23180M   26087.88950017  .00000784  00000+0  38007-4 0  9996","line2":"2 58413  43.0033 292.8645 0001018 285.3133  74.7606 15.27579409130695","category":"Starlink"}]}